ORBCOMM FM33 [-]        
1 25983U 99065D   24018.89653000  .00001700  00000+0  61302-3 0  9994
2 25983  45.0291 283.1454 0009631 350.5787 135.8897 14.37205540261866
ORBCOMM FM36 [-]        
1 25984U 99065E   24019.09272113  .00002076  00000+0  77001-3 0  9990
2 25984  45.0415   5.7803 0004786 254.6087 105.4232 14.35077777260945
ORBCOMM FM35 [+]        
1 25985U 99065F   24019.10515533  .00001853  00000+0  69770-3 0  9995
2 25985  45.0411   8.0461 0004605 321.6135  38.4385 14.34729347260947
ORBCOMM FM34 [-]        
1 25986U 99065G   24019.00280168  .00002047  00000+0  76608-3 0  9992
2 25986  45.0407   9.0331 0005592 284.7265  75.2963 14.34685329260895
ORBCOMM FM38 [-]        
1 33060U 08031A   24019.00554452  .00002851  00000+0  43145-3 0  9990
2 33060  48.4402 241.3799 0005254 349.1669  10.9131 14.76772225838484
ORBCOMM FM41 [-]        
1 33061U 08031B   24018.78171807  .00002764  00000+0  42159-3 0  9991
2 33061  48.4433 248.8001 0004304 332.3325 141.5672 14.76515398837964
ORBCOMM FM29 [-]        
1 33062U 08031C   24019.11107630  .00003045  00000+0  46245-3 0  9996
2 33062  48.4388 255.2605 0006368 335.1920 185.5340 14.76421995838319
ORBCOMM FM39 [-]        
1 33063U 08031D   24019.10962020  .00002780  00000+0  43365-3 0  9993
2 33063  48.4405 274.9787 0007488 311.1447  48.8820 14.75520441838051
