<?xml version="1.0" encoding="UTF-8"?>
<ndm xmlns:xsi="http://www.w3.org/2001/XMLSchema-instance" xsi:noNamespaceSchemaLocation="https://sanaregistry.org/r/ndmxml_unqualified/ndmxml-2.0.0-master-2.0.xsd">
<omm id="CCSDS_OMM_VERS" version="2.0">
<header><CREATION_DATE/><ORIGINATOR/></header><body><segment><metadata><OBJECT_NAME>ORBCOMM FM33 [-]</OBJECT_NAME><OBJECT_ID>1999-065D</OBJECT_ID><CENTER_NAME>EARTH</CENTER_NAME><REF_FRAME>TEME</REF_FRAME><TIME_SYSTEM>UTC</TIME_SYSTEM><MEAN_ELEMENT_THEORY>SGP4</MEAN_ELEMENT_THEORY></metadata><data><meanElements><EPOCH>2024-01-18T21:31:00.192000</EPOCH><MEAN_MOTION>14.37205540</MEAN_MOTION><ECCENTRICITY>.0009631</ECCENTRICITY><INCLINATION>45.0291</INCLINATION><RA_OF_ASC_NODE>283.1454</RA_OF_ASC_NODE><ARG_OF_PERICENTER>350.5787</ARG_OF_PERICENTER><MEAN_ANOMALY>135.8897</MEAN_ANOMALY></meanElements><tleParameters><EPHEMERIS_TYPE>0</EPHEMERIS_TYPE><CLASSIFICATION_TYPE>U</CLASSIFICATION_TYPE><NORAD_CAT_ID>25983</NORAD_CAT_ID><ELEMENT_SET_NO>999</ELEMENT_SET_NO><REV_AT_EPOCH>26186</REV_AT_EPOCH><BSTAR>.61302E-3</BSTAR><MEAN_MOTION_DOT>.17E-4</MEAN_MOTION_DOT><MEAN_MOTION_DDOT>0</MEAN_MOTION_DDOT></tleParameters></data></segment></body></omm>
<omm id="CCSDS_OMM_VERS" version="2.0">
<header><CREATION_DATE/><ORIGINATOR/></header><body><segment><metadata><OBJECT_NAME>ORBCOMM FM36 [-]</OBJECT_NAME><OBJECT_ID>1999-065E</OBJECT_ID><CENTER_NAME>EARTH</CENTER_NAME><REF_FRAME>TEME</REF_FRAME><TIME_SYSTEM>UTC</TIME_SYSTEM><MEAN_ELEMENT_THEORY>SGP4</MEAN_ELEMENT_THEORY></metadata><data><meanElements><EPOCH>2024-01-19T02:13:31.105632</EPOCH><MEAN_MOTION>14.35077777</MEAN_MOTION><ECCENTRICITY>.0004786</ECCENTRICITY><INCLINATION>45.0415</INCLINATION><RA_OF_ASC_NODE>5.7803</RA_OF_ASC_NODE><ARG_OF_PERICENTER>254.6087</ARG_OF_PERICENTER><MEAN_ANOMALY>105.4232</MEAN_ANOMALY></meanElements><tleParameters><EPHEMERIS_TYPE>0</EPHEMERIS_TYPE><CLASSIFICATION_TYPE>U</CLASSIFICATION_TYPE><NORAD_CAT_ID>25984</NORAD_CAT_ID><ELEMENT_SET_NO>999</ELEMENT_SET_NO><REV_AT_EPOCH>26094</REV_AT_EPOCH><BSTAR>.77001E-3</BSTAR><MEAN_MOTION_DOT>.2076E-4</MEAN_MOTION_DOT><MEAN_MOTION_DDOT>0</MEAN_MOTION_DDOT></tleParameters></data></segment></body></omm>
<omm id="CCSDS_OMM_VERS" version="2.0">
<header><CREATION_DATE/><ORIGINATOR/></header><body><segment><metadata><OBJECT_NAME>ORBCOMM FM35 [+]</OBJECT_NAME><OBJECT_ID>1999-065F</OBJECT_ID><CENTER_NAME>EARTH</CENTER_NAME><REF_FRAME>TEME</REF_FRAME><TIME_SYSTEM>UTC</TIME_SYSTEM><MEAN_ELEMENT_THEORY>SGP4</MEAN_ELEMENT_THEORY></metadata><data><meanElements><EPOCH>2024-01-19T02:31:25.420512</EPOCH><MEAN_MOTION>14.34729347</MEAN_MOTION><ECCENTRICITY>.0004605</ECCENTRICITY><INCLINATION>45.0411</INCLINATION><RA_OF_ASC_NODE>8.0461</RA_OF_ASC_NODE><ARG_OF_PERICENTER>321.6135</ARG_OF_PERICENTER><MEAN_ANOMALY>38.4385</MEAN_ANOMALY></meanElements><tleParameters><EPHEMERIS_TYPE>0</EPHEMERIS_TYPE><CLASSIFICATION_TYPE>U</CLASSIFICATION_TYPE><NORAD_CAT_ID>25985</NORAD_CAT_ID><ELEMENT_SET_NO>999</ELEMENT_SET_NO><REV_AT_EPOCH>26094</REV_AT_EPOCH><BSTAR>.6977E-3</BSTAR><MEAN_MOTION_DOT>.1853E-4</MEAN_MOTION_DOT><MEAN_MOTION_DDOT>0</MEAN_MOTION_DDOT></tleParameters></data></segment></body></omm>
<omm id="CCSDS_OMM_VERS" version="2.0">
<header><CREATION_DATE/><ORIGINATOR/></header><body><segment><metadata><OBJECT_NAME>ORBCOMM FM34 [-]</OBJECT_NAME><OBJECT_ID>1999-065G</OBJECT_ID><CENTER_NAME>EARTH</CENTER_NAME><REF_FRAME>TEME</REF_FRAME><TIME_SYSTEM>UTC</TIME_SYSTEM><MEAN_ELEMENT_THEORY>SGP4</MEAN_ELEMENT_THEORY></metadata><data><meanElements><EPOCH>2024-01-19T00:04:02.065152</EPOCH><MEAN_MOTION>14.34685329</MEAN_MOTION><ECCENTRICITY>.0005592</ECCENTRICITY><INCLINATION>45.0407</INCLINATION><RA_OF_ASC_NODE>9.0331</RA_OF_ASC_NODE><ARG_OF_PERICENTER>284.7265</ARG_OF_PERICENTER><MEAN_ANOMALY>75.2963</MEAN_ANOMALY></meanElements><tleParameters><EPHEMERIS_TYPE>0</EPHEMERIS_TYPE><CLASSIFICATION_TYPE>U</CLASSIFICATION_TYPE><NORAD_CAT_ID>25986</NORAD_CAT_ID><ELEMENT_SET_NO>999</ELEMENT_SET_NO><REV_AT_EPOCH>26089</REV_AT_EPOCH><BSTAR>.76608E-3</BSTAR><MEAN_MOTION_DOT>.2047E-4</MEAN_MOTION_DOT><MEAN_MOTION_DDOT>0</MEAN_MOTION_DDOT></tleParameters></data></segment></body></omm>
<omm id="CCSDS_OMM_VERS" version="2.0">
<header><CREATION_DATE/><ORIGINATOR/></header><body><segment><metadata><OBJECT_NAME>ORBCOMM FM38 [-]</OBJECT_NAME><OBJECT_ID>2008-031A</OBJECT_ID><CENTER_NAME>EARTH</CENTER_NAME><REF_FRAME>TEME</REF_FRAME><TIME_SYSTEM>UTC</TIME_SYSTEM><MEAN_ELEMENT_THEORY>SGP4</MEAN_ELEMENT_THEORY></metadata><data><meanElements><EPOCH>2024-01-19T00:07:59.046528</EPOCH><MEAN_MOTION>14.76772225</MEAN_MOTION><ECCENTRICITY>.0005254</ECCENTRICITY><INCLINATION>48.4402</INCLINATION><RA_OF_ASC_NODE>241.3799</RA_OF_ASC_NODE><ARG_OF_PERICENTER>349.1669</ARG_OF_PERICENTER><MEAN_ANOMALY>10.9131</MEAN_ANOMALY></meanElements><tleParameters><EPHEMERIS_TYPE>0</EPHEMERIS_TYPE><CLASSIFICATION_TYPE>U</CLASSIFICATION_TYPE><NORAD_CAT_ID>33060</NORAD_CAT_ID><ELEMENT_SET_NO>999</ELEMENT_SET_NO><REV_AT_EPOCH>83848</REV_AT_EPOCH><BSTAR>.43145E-3</BSTAR><MEAN_MOTION_DOT>.2851E-4</MEAN_MOTION_DOT><MEAN_MOTION_DDOT>0</MEAN_MOTION_DDOT></tleParameters></data></segment></body></omm>
<omm id="CCSDS_OMM_VERS" version="2.0">
<header><CREATION_DATE/><ORIGINATOR/></header><body><segment><metadata><OBJECT_NAME>ORBCOMM FM41 [-]</OBJECT_NAME><OBJECT_ID>2008-031B</OBJECT_ID><CENTER_NAME>EARTH</CENTER_NAME><REF_FRAME>TEME</REF_FRAME><TIME_SYSTEM>UTC</TIME_SYSTEM><MEAN_ELEMENT_THEORY>SGP4</MEAN_ELEMENT_THEORY></metadata><data><meanElements><EPOCH>2024-01-18T18:45:40.441248</EPOCH><MEAN_MOTION>14.76515398</MEAN_MOTION><ECCENTRICITY>.0004304</ECCENTRICITY><INCLINATION>48.4433</INCLINATION><RA_OF_ASC_NODE>248.8001</RA_OF_ASC_NODE><ARG_OF_PERICENTER>332.3325</ARG_OF_PERICENTER><MEAN_ANOMALY>141.5672</MEAN_ANOMALY></meanElements><tleParameters><EPHEMERIS_TYPE>0</EPHEMERIS_TYPE><CLASSIFICATION_TYPE>U</CLASSIFICATION_TYPE><NORAD_CAT_ID>33061</NORAD_CAT_ID><ELEMENT_SET_NO>999</ELEMENT_SET_NO><REV_AT_EPOCH>83796</REV_AT_EPOCH><BSTAR>.42159E-3</BSTAR><MEAN_MOTION_DOT>.2764E-4</MEAN_MOTION_DOT><MEAN_MOTION_DDOT>0</MEAN_MOTION_DDOT></tleParameters></data></segment></body></omm>
<omm id="CCSDS_OMM_VERS" version="2.0">
<header><CREATION_DATE/><ORIGINATOR/></header><body><segment><metadata><OBJECT_NAME>ORBCOMM FM29 [-]</OBJECT_NAME><OBJECT_ID>2008-031C</OBJECT_ID><CENTER_NAME>EARTH</CENTER_NAME><REF_FRAME>TEME</REF_FRAME><TIME_SYSTEM>UTC</TIME_SYSTEM><MEAN_ELEMENT_THEORY>SGP4</MEAN_ELEMENT_THEORY></metadata><data><meanElements><EPOCH>2024-01-19T02:39:56.992320</EPOCH><MEAN_MOTION>14.76421995</MEAN_MOTION><ECCENTRICITY>.0006368</ECCENTRICITY><INCLINATION>48.4388</INCLINATION><RA_OF_ASC_NODE>255.2605</RA_OF_ASC_NODE><ARG_OF_PERICENTER>335.1920</ARG_OF_PERICENTER><MEAN_ANOMALY>185.5340</MEAN_ANOMALY></meanElements><tleParameters><EPHEMERIS_TYPE>0</EPHEMERIS_TYPE><CLASSIFICATION_TYPE>U</CLASSIFICATION_TYPE><NORAD_CAT_ID>33062</NORAD_CAT_ID><ELEMENT_SET_NO>999</ELEMENT_SET_NO><REV_AT_EPOCH>83831</REV_AT_EPOCH><BSTAR>.46245E-3</BSTAR><MEAN_MOTION_DOT>.3045E-4</MEAN_MOTION_DOT><MEAN_MOTION_DDOT>0</MEAN_MOTION_DDOT></tleParameters></data></segment></body></omm>
<omm id="CCSDS_OMM_VERS" version="2.0">
<header><CREATION_DATE/><ORIGINATOR/></header><body><segment><metadata><OBJECT_NAME>ORBCOMM FM39 [-]</OBJECT_NAME><OBJECT_ID>2008-031D</OBJECT_ID><CENTER_NAME>EARTH</CENTER_NAME><REF_FRAME>TEME</REF_FRAME><TIME_SYSTEM>UTC</TIME_SYSTEM><MEAN_ELEMENT_THEORY>SGP4</MEAN_ELEMENT_THEORY></metadata><data><meanElements><EPOCH>2024-01-19T02:37:51.185280</EPOCH><MEAN_MOTION>14.75520441</MEAN_MOTION><ECCENTRICITY>.0007488</ECCENTRICITY><INCLINATION>48.4405</INCLINATION><RA_OF_ASC_NODE>274.9787</RA_OF_ASC_NODE><ARG_OF_PERICENTER>311.1447</ARG_OF_PERICENTER><MEAN_ANOMALY>48.8820</MEAN_ANOMALY></meanElements><tleParameters><EPHEMERIS_TYPE>0</EPHEMERIS_TYPE><CLASSIFICATION_TYPE>U</CLASSIFICATION_TYPE><NORAD_CAT_ID>33063</NORAD_CAT_ID><ELEMENT_SET_NO>999</ELEMENT_SET_NO><REV_AT_EPOCH>83805</REV_AT_EPOCH><BSTAR>.43365E-3</BSTAR><MEAN_MOTION_DOT>.278E-4</MEAN_MOTION_DOT><MEAN_MOTION_DDOT>0</MEAN_MOTION_DDOT></tleParameters></data></segment></body></omm>

</ndm>
